{"fetched_at":"2026-07-23T17:55:37.447Z","source":"https://celestrak.org/NORAD/elements/gp.php?NAME=JILIN&FORMAT=JSON","constellation":"jilin-1-gaofen","records":[{"OBJECT_NAME":"JILIN-1 GAOFEN 3A","OBJECT_ID":"2019-032C","EPOCH":"2026-07-23T06:00:36.098784","CLASSIFICATION_TYPE":"U","MEAN_MOTION":15.33327786,"ECCENTRICITY":0.0005463,"INCLINATION":44.9737,"RA_OF_ASC_NODE":158.3456,"ARG_OF_PERICENTER":161.8232,"MEAN_ANOMALY":198.2849,"EPHEMERIS_TYPE":0,"NORAD_CAT_ID":44312,"ELEMENT_SET_NO":999,"REV_AT_EPOCH":39337,"BSTAR":0.00038820026,"MEAN_MOTION_DOT":0.00012461,"MEAN_MOTION_DDOT":0},{"OBJECT_NAME":"JILIN-1 GAOFEN 2A","OBJECT_ID":"2019-075A","EPOCH":"2026-07-23T06:25:41.442528","CLASSIFICATION_TYPE":"U","MEAN_MOTION":15.40177059,"ECCENTRICITY":0.00045386,"INCLINATION":97.4955,"RA_OF_ASC_NODE":288.9223,"ARG_OF_PERICENTER":320.6216,"MEAN_ANOMALY":39.47,"EPHEMERIS_TYPE":0,"NORAD_CAT_ID":44777,"ELEMENT_SET_NO":999,"REV_AT_EPOCH":37043,"BSTAR":0.00036259965,"MEAN_MOTION_DOT":0.00014479,"MEAN_MOTION_DDOT":0},{"OBJECT_NAME":"JILIN-1 GAOFEN 2B","OBJECT_ID":"2019-086A","EPOCH":"2026-07-23T06:25:00.572736","CLASSIFICATION_TYPE":"U","MEAN_MOTION":15.21066317,"ECCENTRICITY":0.00140136,"INCLINATION":97.4865,"RA_OF_ASC_NODE":276.0374,"ARG_OF_PERICENTER":186.7163,"MEAN_ANOMALY":173.3887,"EPHEMERIS_TYPE":0,"NORAD_CAT_ID":44836,"ELEMENT_SET_NO":999,"REV_AT_EPOCH":36597,"BSTAR":0.0002789889,"MEAN_MOTION_DOT":0.00006144,"MEAN_MOTION_DDOT":0},{"OBJECT_NAME":"JILIN-1 GAOFEN 3E","OBJECT_ID":"2020-065D","EPOCH":"2026-07-23T06:18:39.076128","CLASSIFICATION_TYPE":"U","MEAN_MOTION":15.68183014,"ECCENTRICITY":0.00086121,"INCLINATION":97.2207,"RA_OF_ASC_NODE":257.8173,"ARG_OF_PERICENTER":43.8834,"MEAN_ANOMALY":316.3111,"EPHEMERIS_TYPE":0,"NORAD_CAT_ID":46457,"ELEMENT_SET_NO":999,"REV_AT_EPOCH":32540,"BSTAR":0.00072098939,"MEAN_MOTION_DOT":0.00080977,"MEAN_MOTION_DDOT":0},{"OBJECT_NAME":"JILIN-1 GAOFEN 3F","OBJECT_ID":"2020-065E","EPOCH":"2026-07-23T07:04:34.562208","CLASSIFICATION_TYPE":"U","MEAN_MOTION":15.64727798,"ECCENTRICITY":0.00099667,"INCLINATION":97.2162,"RA_OF_ASC_NODE":254.9951,"ARG_OF_PERICENTER":28.8649,"MEAN_ANOMALY":331.3161,"EPHEMERIS_TYPE":0,"NORAD_CAT_ID":46458,"ELEMENT_SET_NO":999,"REV_AT_EPOCH":32534,"BSTAR":0.00068568263,"MEAN_MOTION_DOT":0.00066976,"MEAN_MOTION_DDOT":0},{"OBJECT_NAME":"JILIN-1 GAOFEN 3G","OBJECT_ID":"2020-065F","EPOCH":"2026-07-23T07:15:58.884768","CLASSIFICATION_TYPE":"U","MEAN_MOTION":15.78617341,"ECCENTRICITY":0.00067141,"INCLINATION":97.2209,"RA_OF_ASC_NODE":262.4981,"ARG_OF_PERICENTER":238.3575,"MEAN_ANOMALY":121.7038,"EPHEMERIS_TYPE":0,"NORAD_CAT_ID":46459,"ELEMENT_SET_NO":999,"REV_AT_EPOCH":32562,"BSTAR":0.00079337746,"MEAN_MOTION_DOT":0.0013987,"MEAN_MOTION_DDOT":0},{"OBJECT_NAME":"JILIN-1 GAOFEN 3H","OBJECT_ID":"2020-065G","EPOCH":"2026-07-23T04:19:41.709504","CLASSIFICATION_TYPE":"U","MEAN_MOTION":15.73533725,"ECCENTRICITY":0.00073779,"INCLINATION":97.2164,"RA_OF_ASC_NODE":258.4398,"ARG_OF_PERICENTER":178.6257,"MEAN_ANOMALY":181.5029,"EPHEMERIS_TYPE":0,"NORAD_CAT_ID":46460,"ELEMENT_SET_NO":999,"REV_AT_EPOCH":32553,"BSTAR":0.00078747798,"MEAN_MOTION_DOT":0.00110858,"MEAN_MOTION_DDOT":0},{"OBJECT_NAME":"JILIN-1 GAOFEN 2D","OBJECT_ID":"2021-086A","EPOCH":"2026-07-23T07:44:50.813376","CLASSIFICATION_TYPE":"U","MEAN_MOTION":15.10910412,"ECCENTRICITY":0.00334137,"INCLINATION":97.6507,"RA_OF_ASC_NODE":327.0271,"ARG_OF_PERICENTER":23.5697,"MEAN_ANOMALY":336.7055,"EPHEMERIS_TYPE":0,"NORAD_CAT_ID":49256,"ELEMENT_SET_NO":999,"REV_AT_EPOCH":26617,"BSTAR":0.00020201469,"MEAN_MOTION_DOT":0.00003342,"MEAN_MOTION_DDOT":0},{"OBJECT_NAME":"JILIN-1 GAOFEN 2F","OBJECT_ID":"2021-097A","EPOCH":"2026-07-23T06:25:34.185792","CLASSIFICATION_TYPE":"U","MEAN_MOTION":15.07992436,"ECCENTRICITY":0.00202381,"INCLINATION":97.6734,"RA_OF_ASC_NODE":330.3911,"ARG_OF_PERICENTER":103.9691,"MEAN_ANOMALY":256.3789,"EPHEMERIS_TYPE":0,"NORAD_CAT_ID":49338,"ELEMENT_SET_NO":999,"REV_AT_EPOCH":26175,"BSTAR":0.00022087374,"MEAN_MOTION_DOT":0.00003348,"MEAN_MOTION_DDOT":0},{"OBJECT_NAME":"JILIN-1 GAOFEN 3D27","OBJECT_ID":"2022-048B","EPOCH":"2026-07-22T17:54:20.453184","CLASSIFICATION_TYPE":"U","MEAN_MOTION":15.8539409,"ECCENTRICITY":0.00057144,"INCLINATION":97.5723,"RA_OF_ASC_NODE":321.1806,"ARG_OF_PERICENTER":231.3604,"MEAN_ANOMALY":128.7155,"EPHEMERIS_TYPE":0,"NORAD_CAT_ID":52444,"ELEMENT_SET_NO":999,"REV_AT_EPOCH":23509,"BSTAR":0.0010011054,"MEAN_MOTION_DOT":0.0024425,"MEAN_MOTION_DDOT":0},{"OBJECT_NAME":"JILIN-1 GAOFEN 3D28","OBJECT_ID":"2022-048C","EPOCH":"2026-07-23T06:42:55.274688","CLASSIFICATION_TYPE":"U","MEAN_MOTION":15.91679421,"ECCENTRICITY":0.00057704,"INCLINATION":97.5652,"RA_OF_ASC_NODE":322.1382,"ARG_OF_PERICENTER":236.314,"MEAN_ANOMALY":123.7584,"EPHEMERIS_TYPE":0,"NORAD_CAT_ID":52445,"ELEMENT_SET_NO":999,"REV_AT_EPOCH":23524,"BSTAR":0.00095479438,"MEAN_MOTION_DOT":0.00308879,"MEAN_MOTION_DDOT":0.000037929031},{"OBJECT_NAME":"JILIN-1 GAOFEN 3D29","OBJECT_ID":"2022-048D","EPOCH":"2026-07-23T07:08:58.233408","CLASSIFICATION_TYPE":"U","MEAN_MOTION":15.85879821,"ECCENTRICITY":0.00045881,"INCLINATION":97.5716,"RA_OF_ASC_NODE":322.1603,"ARG_OF_PERICENTER":217.6075,"MEAN_ANOMALY":142.4875,"EPHEMERIS_TYPE":0,"NORAD_CAT_ID":52446,"ELEMENT_SET_NO":999,"REV_AT_EPOCH":23520,"BSTAR":0.00092314289,"MEAN_MOTION_DOT":0.00230071,"MEAN_MOTION_DDOT":0},{"OBJECT_NAME":"JILIN-1 GAOFEN 3D31","OBJECT_ID":"2022-048F","EPOCH":"2026-07-23T06:22:43.883616","CLASSIFICATION_TYPE":"U","MEAN_MOTION":15.99471693,"ECCENTRICITY":0.0007416,"INCLINATION":97.5738,"RA_OF_ASC_NODE":323.6311,"ARG_OF_PERICENTER":246.1975,"MEAN_ANOMALY":113.8525,"EPHEMERIS_TYPE":0,"NORAD_CAT_ID":52448,"ELEMENT_SET_NO":999,"REV_AT_EPOCH":23531,"BSTAR":0.0010359649,"MEAN_MOTION_DOT":0.00509823,"MEAN_MOTION_DDOT":0.00011460265},{"OBJECT_NAME":"JILIN-1 GAOFEN 03D09","OBJECT_ID":"2022-098B","EPOCH":"2026-07-23T07:27:54.552384","CLASSIFICATION_TYPE":"U","MEAN_MOTION":15.71336446,"ECCENTRICITY":0.0003809,"INCLINATION":97.5629,"RA_OF_ASC_NODE":336.8305,"ARG_OF_PERICENTER":211.0401,"MEAN_ANOMALY":149.0637,"EPHEMERIS_TYPE":0,"NORAD_CAT_ID":53445,"ELEMENT_SET_NO":999,"REV_AT_EPOCH":22029,"BSTAR":0.00068703003,"MEAN_MOTION_DOT":0.00087804,"MEAN_MOTION_DDOT":0},{"OBJECT_NAME":"JILIN-1 GAOFEN 03D43","OBJECT_ID":"2022-098E","EPOCH":"2026-07-22T22:47:21.408576","CLASSIFICATION_TYPE":"U","MEAN_MOTION":15.752575,"ECCENTRICITY":0.00039173,"INCLINATION":97.5612,"RA_OF_ASC_NODE":337.6472,"ARG_OF_PERICENTER":208.8607,"MEAN_ANOMALY":151.2441,"EPHEMERIS_TYPE":0,"NORAD_CAT_ID":53448,"ELEMENT_SET_NO":999,"REV_AT_EPOCH":22031,"BSTAR":0.0008013945,"MEAN_MOTION_DOT":0.00121518,"MEAN_MOTION_DDOT":0},{"OBJECT_NAME":"JILIN-1 GAOFEN 03D08","OBJECT_ID":"2022-155A","EPOCH":"2026-07-23T07:41:21.842880","CLASSIFICATION_TYPE":"U","MEAN_MOTION":15.68393146,"ECCENTRICITY":0.00045231,"INCLINATION":97.6238,"RA_OF_ASC_NODE":352.7275,"ARG_OF_PERICENTER":202.4305,"MEAN_ANOMALY":157.6759,"EPHEMERIS_TYPE":0,"NORAD_CAT_ID":54251,"ELEMENT_SET_NO":999,"REV_AT_EPOCH":20547,"BSTAR":0.00063463642,"MEAN_MOTION_DOT":0.00071697,"MEAN_MOTION_DDOT":0}]}
