JILIN-1 GAOFEN 3A       
1 44312U 19032C   26204.25041781  .00012461  00000+0  38820-3 0  9998
2 44312  44.9737 158.3456 0005463 161.8232 198.2849 15.33327786393374
JILIN-1 GAOFEN 2A       
1 44777U 19075A   26204.26784077  .00014479  00000+0  36260-3 0  9990
2 44777  97.4955 288.9223 0004538 320.6216  39.4700 15.40177059370433
JILIN-1 GAOFEN 2B       
1 44836U 19086A   26204.26736774  .00006144  00000+0  27899-3 0  9997
2 44836  97.4865 276.0374 0014013 186.7163 173.3887 15.21066317365975
JILIN-1 GAOFEN 3E       
1 46457U 20065D   26204.26295227  .00080977  00000+0  72099-3 0  9998
2 46457  97.2207 257.8173 0008612  43.8834 316.3111 15.68183014325402
JILIN-1 GAOFEN 3F       
1 46458U 20065E   26204.29484447  .00066976  00000+0  68568-3 0  9995
2 46458  97.2162 254.9951 0009966  28.8649 331.3161 15.64727798325349
JILIN-1 GAOFEN 3G       
1 46459U 20065F   26204.30276487  .00139870  00000+0  79338-3 0  9992
2 46459  97.2209 262.4981 0006714 238.3575 121.7038 15.78617341325625
JILIN-1 GAOFEN 3H       
1 46460U 20065G   26204.18034386  .00110858  00000+0  78748-3 0  9999
2 46460  97.2164 258.4398 0007377 178.6257 181.5029 15.73533725325535
JILIN-1 GAOFEN 2D       
1 49256U 21086A   26204.32281034  .00003342  00000+0  20201-3 0  9999
2 49256  97.6507 327.0271 0033413  23.5697 336.7055 15.10910412266175
JILIN-1 GAOFEN 2F       
1 49338U 21097A   26204.26775678  .00003348  00000+0  22087-3 0  9997
2 49338  97.6734 330.3911 0020238 103.9691 256.3789 15.07992436261756
JILIN-1 GAOFEN 3D27     
1 52444U 22048B   26203.74607006  .00244250  00000+0  10011-2 0  9999
2 52444  97.5723 321.1806 0005714 231.3604 128.7155 15.85394090235093
JILIN-1 GAOFEN 3D28     
1 52445U 22048C   26204.27980642  .00308879  37929-4  95479-3 0  9994
2 52445  97.5652 322.1382 0005770 236.3140 123.7584 15.91679421235246
JILIN-1 GAOFEN 3D29     
1 52446U 22048D   26204.29789622  .00230071  00000+0  92314-3 0  9990
2 52446  97.5716 322.1603 0004588 217.6075 142.4875 15.85879821235205
JILIN-1 GAOFEN 3D31     
1 52448U 22048F   26204.26578569  .00509823  11460-3  10360-2 0  9995
2 52448  97.5738 323.6311 0007416 246.1975 113.8525 15.99471693235318
JILIN-1 GAOFEN 03D09    
1 53445U 22098B   26204.31104806  .00087804  00000+0  68703-3 0  9992
2 53445  97.5629 336.8305 0003809 211.0401 149.0637 15.71336446220293
JILIN-1 GAOFEN 03D43    
1 53448U 22098E   26203.94955334  .00121518  00000+0  80139-3 0  9991
2 53448  97.5612 337.6472 0003917 208.8607 151.2441 15.75257500220312
JILIN-1 GAOFEN 03D08    
1 54251U 22155A   26204.32039170  .00071697  00000+0  63464-3 0  9996
2 54251  97.6238 352.7275 0004523 202.4305 157.6759 15.68393146205479
